STARLETTE               
1 07646U 75010A   26088.20788154 -.00000144  00000+0 -92672-6 0  9997
2 07646  49.8239  60.2828 0205631 158.8236 202.1322 13.82349319583478
LAGEOS 1                
1 08820U 76039A   26087.43940382 -.00000002  00000+0  00000+0 0  9990
2 08820 109.8125 151.7023 0044667 319.5662  61.3227  6.38664795907982
AJISAI (EGS)            
1 16908U 86061A   26088.16351522 -.00000101  00000+0 -24652-4 0  9990
2 16908  50.0113  33.4644 0011333 337.1729 153.7726 12.44515638470420
COSMOS 1989 (ETALON 1)  
1 19751U 89001C   26087.76275478  .00000038  00000+0  00000+0 0  9999
2 19751  64.9002  74.9443 0023382 217.6499 312.9005  2.13155958289652
COSMOS 2024 (ETALON 2)  
1 20026U 89039C   26087.83937954 -.00000021  00000+0  00000+0 0  9992
2 20026  64.9828 313.3049 0020488 213.1418 159.8764  2.13204526286791
LAGEOS 2                
1 22195U 92070B   26079.09060082 -.00000009  00000+0  00000+0 0  9994
2 22195  52.6746 322.9737 0137714 148.3602   4.1736  6.47293426789650
STELLA                  
1 22824U 93061B   26088.21522925 -.00000029  00000+0  65338-5 0  9990
2 22824  98.7800 152.1527 0007431 107.2272 315.2515 14.27468143693360
LARETS                  
1 27944U 03042F   26088.21088276  .00000105  00000+0  29753-4 0  9998
2 27944  98.4055 248.7760 0011086 287.6408  72.3583 14.63853474201662
LARES                   
1 38077U 12006A   26088.19076620 -.00000028  00000+0  61777-4 0  9991
2 38077  69.4897  68.8847 0006738 127.5172 232.6467 12.54932262647036
LARES-2                 
1 53105U 22080A   26080.04970185 -.00000015  00000+0  00000+0 0  9991
2 53105  70.1732 335.5553 0005411   4.6462 355.4347  6.38964821 86033
